STARLINK-30400          
1 57937U 23148C   26068.17015527  .00000231  00000+0  19912-4 0  9990
2 57937  53.1615  26.6044 0001096  73.1298 286.9823 15.30192178138346
FLOCK 4G-13             
1 62621U 25009N   26068.70638971  .00053076  00000+0  16695-2 0  9995
2 62621  97.4019 151.0918 0003801 292.7207  67.3633 15.32770015 63700
